CCSDS_OMM_VERS = 2.0
CREATION_DATE  = 
ORIGINATOR     = 

OBJECT_NAME    = STARLINK-36390
OBJECT_ID      = 2026-035H
CENTER_NAME    = EARTH
REF_FRAME      = TEME
TIME_SYSTEM    = UTC
MEAN_ELEMENT_THEORY = SGP/SGP4

EPOCH          = 2026-03-02T22:00:01.999584
MEAN_MOTION    = 16.02167837
ECCENTRICITY   = .00010981
INCLINATION    = 97.2779
RA_OF_ASC_NODE = 353.7159
ARG_OF_PERICENTER = 103.8006
MEAN_ANOMALY   = 118.3670

EPHEMERIS_TYPE = 0
CLASSIFICATION_TYPE = U
NORAD_CAT_ID   = 67886
ELEMENT_SET_NO = 999
REV_AT_EPOCH   = 271
BSTAR          = -.16576863E-2
MEAN_MOTION_DOT = -.94855E-2
MEAN_MOTION_DDOT = .30466353E-3

CCSDS_OMM_VERS = 2.0
CREATION_DATE  = 
ORIGINATOR     = 

OBJECT_NAME    = STARLINK-36368
OBJECT_ID      = 2026-035J
CENTER_NAME    = EARTH
REF_FRAME      = TEME
TIME_SYSTEM    = UTC
MEAN_ELEMENT_THEORY = SGP/SGP4

EPOCH          = 2026-03-02T22:00:01.999584
MEAN_MOTION    = 16.02280360
ECCENTRICITY   = .00011049
INCLINATION    = 97.2778
RA_OF_ASC_NODE = 353.7173
ARG_OF_PERICENTER = 104.4232
MEAN_ANOMALY   = 121.0357

EPHEMERIS_TYPE = 0
CLASSIFICATION_TYPE = U
NORAD_CAT_ID   = 67887
ELEMENT_SET_NO = 999
REV_AT_EPOCH   = 266
BSTAR          = -.16392055E-2
MEAN_MOTION_DOT = -.944171E-2
MEAN_MOTION_DDOT = .30245694E-3

CCSDS_OMM_VERS = 2.0
CREATION_DATE  = 
ORIGINATOR     = 

OBJECT_NAME    = STARLINK-36801
OBJECT_ID      = 2026-035K
CENTER_NAME    = EARTH
REF_FRAME      = TEME
TIME_SYSTEM    = UTC
MEAN_ELEMENT_THEORY = SGP/SGP4

EPOCH          = 2026-03-02T22:00:01.999584
MEAN_MOTION    = 16.02407135
ECCENTRICITY   = .00010416
INCLINATION    = 97.2777
RA_OF_ASC_NODE = 353.7186
ARG_OF_PERICENTER = 103.1565
MEAN_ANOMALY   = 125.4577

EPHEMERIS_TYPE = 0
CLASSIFICATION_TYPE = U
NORAD_CAT_ID   = 67888
ELEMENT_SET_NO = 999
REV_AT_EPOCH   = 266
BSTAR          = -.16225644E-2
MEAN_MOTION_DOT = -.941527E-2
MEAN_MOTION_DDOT = .30133478E-3

CCSDS_OMM_VERS = 2.0
CREATION_DATE  = 
ORIGINATOR     = 

OBJECT_NAME    = STARLINK-36372
OBJECT_ID      = 2026-035L
CENTER_NAME    = EARTH
REF_FRAME      = TEME
TIME_SYSTEM    = UTC
MEAN_ELEMENT_THEORY = SGP/SGP4

EPOCH          = 2026-03-02T22:00:01.999584
MEAN_MOTION    = 16.02615009
ECCENTRICITY   = .00010913
INCLINATION    = 97.2772
RA_OF_ASC_NODE = 353.7210
ARG_OF_PERICENTER = 106.5990
MEAN_ANOMALY   = 128.0518

EPHEMERIS_TYPE = 0
CLASSIFICATION_TYPE = U
NORAD_CAT_ID   = 67889
ELEMENT_SET_NO = 999
REV_AT_EPOCH   = 266
BSTAR          = -.16101095E-2
MEAN_MOTION_DOT = -.945683E-2
MEAN_MOTION_DDOT = .30454278E-3

CCSDS_OMM_VERS = 2.0
CREATION_DATE  = 
ORIGINATOR     = 

OBJECT_NAME    = STARLINK-36363
OBJECT_ID      = 2026-035M
CENTER_NAME    = EARTH
REF_FRAME      = TEME
TIME_SYSTEM    = UTC
MEAN_ELEMENT_THEORY = SGP/SGP4

EPOCH          = 2026-03-02T22:00:01.999584
MEAN_MOTION    = 16.02523915
ECCENTRICITY   = .0001137
INCLINATION    = 97.2776
RA_OF_ASC_NODE = 353.7203
ARG_OF_PERICENTER = 107.8770
MEAN_ANOMALY   = 124.3253

EPHEMERIS_TYPE = 0
CLASSIFICATION_TYPE = U
NORAD_CAT_ID   = 67890
ELEMENT_SET_NO = 999
REV_AT_EPOCH   = 266
BSTAR          = -.16250278E-2
MEAN_MOTION_DOT = -.949355E-2
MEAN_MOTION_DDOT = .30641105E-3

CCSDS_OMM_VERS = 2.0
CREATION_DATE  = 
ORIGINATOR     = 

OBJECT_NAME    = STARLINK-36816
OBJECT_ID      = 2026-035N
CENTER_NAME    = EARTH
REF_FRAME      = TEME
TIME_SYSTEM    = UTC
MEAN_ELEMENT_THEORY = SGP/SGP4

EPOCH          = 2026-03-02T22:00:01.999584
MEAN_MOTION    = 16.04270478
ECCENTRICITY   = .00008744
INCLINATION    = 97.2748
RA_OF_ASC_NODE = 353.7393
ARG_OF_PERICENTER = 89.9153
MEAN_ANOMALY   = 190.6244

EPHEMERIS_TYPE = 0
CLASSIFICATION_TYPE = U
NORAD_CAT_ID   = 67891
ELEMENT_SET_NO = 999
REV_AT_EPOCH   = 255
BSTAR          = -.17246277E-2
MEAN_MOTION_DOT = -.1115413E-1
MEAN_MOTION_DDOT = .42151937E-3

CCSDS_OMM_VERS = 2.0
CREATION_DATE  = 
ORIGINATOR     = 

OBJECT_NAME    = STARLINK-36813
OBJECT_ID      = 2026-035P
CENTER_NAME    = EARTH
REF_FRAME      = TEME
TIME_SYSTEM    = UTC
MEAN_ELEMENT_THEORY = SGP/SGP4

EPOCH          = 2026-03-02T22:00:01.999584
MEAN_MOTION    = 16.03587917
ECCENTRICITY   = .00009965
INCLINATION    = 97.2753
RA_OF_ASC_NODE = 353.7305
ARG_OF_PERICENTER = 106.5533
MEAN_ANOMALY   = 153.4825

EPHEMERIS_TYPE = 0
CLASSIFICATION_TYPE = U
NORAD_CAT_ID   = 67892
ELEMENT_SET_NO = 999
REV_AT_EPOCH   = 266
BSTAR          = -.17191252E-2
MEAN_MOTION_DOT = -.1068074E-1
MEAN_MOTION_DDOT = .38589437E-3

CCSDS_OMM_VERS = 2.0
CREATION_DATE  = 
ORIGINATOR     = 

OBJECT_NAME    = STARLINK-36803
OBJECT_ID      = 2026-035Q
CENTER_NAME    = EARTH
REF_FRAME      = TEME
TIME_SYSTEM    = UTC
MEAN_ELEMENT_THEORY = SGP/SGP4

EPOCH          = 2026-03-02T22:00:01.999584
MEAN_MOTION    = 16.02751756
ECCENTRICITY   = .00010682
INCLINATION    = 97.2770
RA_OF_ASC_NODE = 353.7224
ARG_OF_PERICENTER = 110.7099
MEAN_ANOMALY   = 127.7819

EPHEMERIS_TYPE = 0
CLASSIFICATION_TYPE = U
NORAD_CAT_ID   = 67893
ELEMENT_SET_NO = 999
REV_AT_EPOCH   = 266
BSTAR          = -.15941619E-2
MEAN_MOTION_DOT = -.943852E-2
MEAN_MOTION_DDOT = .30393611E-3

CCSDS_OMM_VERS = 2.0
CREATION_DATE  = 
ORIGINATOR     = 

OBJECT_NAME    = STARLINK-36846
OBJECT_ID      = 2026-035R
CENTER_NAME    = EARTH
REF_FRAME      = TEME
TIME_SYSTEM    = UTC
MEAN_ELEMENT_THEORY = SGP/SGP4

EPOCH          = 2026-03-02T22:00:01.999584
MEAN_MOTION    = 16.03038443
ECCENTRICITY   = .00011036
INCLINATION    = 97.2768
RA_OF_ASC_NODE = 353.7259
ARG_OF_PERICENTER = 114.7774
MEAN_ANOMALY   = 131.5480

EPHEMERIS_TYPE = 0
CLASSIFICATION_TYPE = U
NORAD_CAT_ID   = 67894
ELEMENT_SET_NO = 999
REV_AT_EPOCH   = 266
BSTAR          = -.15750394E-2
MEAN_MOTION_DOT = -.948321E-2
MEAN_MOTION_DDOT = .30764244E-3

CCSDS_OMM_VERS = 2.0
CREATION_DATE  = 
ORIGINATOR     = 

OBJECT_NAME    = STARLINK-36866
OBJECT_ID      = 2026-035S
CENTER_NAME    = EARTH
REF_FRAME      = TEME
TIME_SYSTEM    = UTC
MEAN_ELEMENT_THEORY = SGP/SGP4

EPOCH          = 2026-03-02T22:00:01.999584
MEAN_MOTION    = 16.03170049
ECCENTRICITY   = .00009881
INCLINATION    = 97.2766
RA_OF_ASC_NODE = 353.7272
ARG_OF_PERICENTER = 90.6680
MEAN_ANOMALY   = 159.0565

EPHEMERIS_TYPE = 0
CLASSIFICATION_TYPE = U
NORAD_CAT_ID   = 67895
ELEMENT_SET_NO = 999
REV_AT_EPOCH   = 266
BSTAR          = -.15778801E-2
MEAN_MOTION_DOT = -.957332E-2
MEAN_MOTION_DDOT = .31357134E-3

CCSDS_OMM_VERS = 2.0
CREATION_DATE  = 
ORIGINATOR     = 

OBJECT_NAME    = STARLINK-36877
OBJECT_ID      = 2026-035T
CENTER_NAME    = EARTH
REF_FRAME      = TEME
TIME_SYSTEM    = UTC
MEAN_ELEMENT_THEORY = SGP/SGP4

EPOCH          = 2026-03-02T22:00:01.999584
MEAN_MOTION    = 16.02901791
ECCENTRICITY   = .00009903
INCLINATION    = 97.2768
RA_OF_ASC_NODE = 353.7241
ARG_OF_PERICENTER = 94.4162
MEAN_ANOMALY   = 148.1555

EPHEMERIS_TYPE = 0
CLASSIFICATION_TYPE = U
NORAD_CAT_ID   = 67896
ELEMENT_SET_NO = 999
REV_AT_EPOCH   = 266
BSTAR          = -.15853295E-2
MEAN_MOTION_DOT = -.946883E-2
MEAN_MOTION_DDOT = .30629033E-3

CCSDS_OMM_VERS = 2.0
CREATION_DATE  = 
ORIGINATOR     = 

OBJECT_NAME    = STARLINK-36870
OBJECT_ID      = 2026-035U
CENTER_NAME    = EARTH
REF_FRAME      = TEME
TIME_SYSTEM    = UTC
MEAN_ELEMENT_THEORY = SGP/SGP4

EPOCH          = 2026-03-02T22:00:01.999584
MEAN_MOTION    = 16.03334555
ECCENTRICITY   = .00009895
INCLINATION    = 97.2762
RA_OF_ASC_NODE = 353.7286
ARG_OF_PERICENTER = 111.8555
MEAN_ANOMALY   = 141.7743

EPHEMERIS_TYPE = 0
CLASSIFICATION_TYPE = U
NORAD_CAT_ID   = 67897
ELEMENT_SET_NO = 999
REV_AT_EPOCH   = 266
BSTAR          = -.16165439E-2
MEAN_MOTION_DOT = -.990073E-2
MEAN_MOTION_DDOT = .33436623E-3

